NORAD_CAT_ID,OBJECT_NAME,OBJECT_TYPE,EPOCH,MEAN_MOTION,ECCENTRICITY,INCLINATION,RA_OF_ASC_NODE,ARG_OF_PERICENTER,MEAN_ANOMALY,BSTAR,MEAN_MOTION_DOT,MEAN_MOTION_DDOT,TLE_LINE0,TLE_LINE1,TLE_LINE2,SEMIMAJOR_AXIS,PERIOD,APOGEE,PERIGEE,DECAYED
49177.0,STARLINK-3103,PAYLOAD,2022-02-10 14:00:01,15.69734814,0.000435,69.999,66.6713,296.4495,290.1347,-4.5644e-05,-5.656e-05,0.0,0 STARLINK-3103,1 49177U 21082AZ  22041.58335648 -.00005656  00000-0 -45644-4 0  9993,2 49177  69.9990  66.6713 0004350 296.4495 290.1347 15.69734814  3672,6737.793000000002,91.735,362.589,356.727,0.0
49177.0,STARLINK-3103,PAYLOAD,2022-02-10 22:00:00,15.69696507,0.0004227,69.9991,65.7344,291.0796,18.5617,0.00092489,0.0011145,0.0,0 STARLINK-3103,1 49177U 21082AZ  22041.91667824  .00111450  00000-0  92489-3 0  9990,2 49177  69.9991  65.7344 0004227 291.0796  18.5617 15.69696507 24818,6737.901999999999,91.737,362.615,356.9190000000001,0.0
49177.0,STARLINK-3103,PAYLOAD,2022-02-11 14:00:01,15.69786278,0.000415,69.9992,63.8601,296.9997,178.9693,0.00010989,0.00012948,0.0,0 STARLINK-3103,1 49177U 21082AZ  22042.58334491  .00012948  00000-0  10989-3 0  9992,2 49177  69.9992  63.8601 0004150 296.9997 178.9693 15.69786278 24917,6737.645,91.732,362.307,356.714,0.0
49177.0,STARLINK-3103,PAYLOAD,2022-02-11 22:00:01,15.69768004,0.0003973,69.9993,62.9233,291.7194,267.4814,-0.00013947,-0.00016844,0.0,0 STARLINK-3103,1 49177U 21082AZ  22042.91668981 -.00016844  00000-0 -13947-3 0  9991,2 49177  69.9993  62.9233 0003973 291.7194 267.4814 15.69768004 24975,6737.698,91.733,362.24,356.886,0.0
49177.0,STARLINK-3103,PAYLOAD,2022-02-12 04:48:04,15.69792619,0.0003783,69.9997,62.1283,285.8982,74.1796,6.4964e-05,7.564e-05,0.0,0 STARLINK-3103,1 49177U 21082AZ  22043.20005504  .00007564  00000-0  64964-4 0  9993,2 49177  69.9997  62.1283 0003783 285.8982  74.1796 15.69792619 25011,6737.627,91.732,362.041,356.9430000000001,0.0
49177.0,STARLINK-3103,PAYLOAD,2022-02-12 14:00:01,15.69663919,0.0003853,69.9988,61.0494,298.7752,66.601,0.00025619,0.00030376,0.0,0 STARLINK-3103,1 49177U 21082AZ  22043.58334491  .00030376  00000-0  25619-3 0  9994,2 49177  69.9988  61.0494 0003853 298.7752  66.6010 15.69663919  3694,6737.996,91.739,362.457,357.264,0.0
49177.0,STARLINK-3103,PAYLOAD,2022-02-12 22:00:00,15.69663724,0.0004145,69.9987,60.1123,288.7968,159.6863,0.00093973,0.00113109,0.0,0 STARLINK-3103,1 49177U 21082AZ  22043.91667824  .00113109  00000-0  93973-3 0  9994,2 49177  69.9987  60.1123 0004145 288.7968 159.6863 15.69663724 25120,6737.996,91.739,362.654,357.0680000000001,0.0
49177.0,STARLINK-3103,PAYLOAD,2022-02-13 14:00:01,15.69796088,0.0004096,69.9986,58.238,294.6871,319.99,-0.00075597,-0.0008969,0.0,0 STARLINK-3103,1 49177U 21082AZ  22044.58334491 -.00089690  00000-0 -75597-3 0  9990,2 49177  69.9986  58.2380 0004096 294.6871 319.9900 15.69796088 25220,6737.6169999999975,91.732,362.242,356.723,0.0
49177.0,STARLINK-3103,PAYLOAD,2022-02-14 06:00:00,15.69759636,0.0004148,69.9991,56.3643,291.2832,129.645,-0.00068522,-0.00081275,0.0,0 STARLINK-3103,1 49177U 21082AZ  22045.25001157 -.00081275  00000-0 -68522-3 0  9996,2 49177  69.9991  56.3643 0004148 291.2832 129.6450 15.69759636 25331,6737.722,91.734,362.382,356.792,0.0
49177.0,STARLINK-3103,PAYLOAD,2022-02-14 14:00:01,15.69736149,0.000425,69.9984,55.4271,292.7925,211.2403,-2.9644e-05,-3.749e-05,0.0,0 STARLINK-3103,1 49177U 21082AZ  22045.58334491 -.00003749  00000-0 -29644-4 0  9995,2 49177  69.9984  55.4271 0004250 292.7925 211.2403 15.69736149 25388,6737.7890000000025,91.735,362.517,356.79,0.0
49177.0,STARLINK-3103,PAYLOAD,2022-02-14 22:00:00,15.69728689,0.000408,69.9984,54.4899,286.994,300.1477,0.00026326,0.00031309,0.0,0 STARLINK-3103,1 49177U 21082AZ  22045.91667824  .00031309  00000-0  26326-3 0  9995,2 49177  69.9984  54.4899 0004080 286.9940 300.1477 15.69728689  3684,6737.81,91.736,362.424,356.926,0.0
49177.0,STARLINK-3103,PAYLOAD,2022-02-15 14:00:01,15.69744006,0.0003986,69.9984,52.6157,293.9789,99.3669,-4.769600000000001e-05,-5.902e-05,0.0,0 STARLINK-3103,1 49177U 21082AZ  22046.58334491 -.00005902  00000-0 -47696-4 0  9996,2 49177  69.9984  52.6157 0003986 293.9789  99.3669 15.69744006  3685,6737.766,91.735,362.317,356.946,0.0
49177.0,STARLINK-3103,PAYLOAD,2022-02-15 22:00:01,15.69715942,0.0003807,69.9987,51.6787,288.1234,188.408,0.00080326,0.00096664,0.0,0 STARLINK-3103,1 49177U 21082AZ  22046.91668981  .00096664  00000-0  80326-3 0  9996,2 49177  69.9987  51.6787 0003807 288.1234 188.4080 15.69715942  3683,6737.847,91.736,362.277,357.147,0.0
49177.0,STARLINK-3103,PAYLOAD,2022-02-16 06:00:00,15.69805605,0.0003866,69.9992,50.7422,292.0653,267.5291,-0.00076578,-0.00090868,0.0,0 STARLINK-3103,1 49177U 21082AZ  22047.25001157 -.00090868  00000-0 -76578-3 0  9996,2 49177  69.9992  50.7422 0003866 292.0653 267.5291 15.69805605 25648,6737.59,91.731,362.06,356.85,0.0
49177.0,STARLINK-3103,PAYLOAD,2022-02-16 14:00:01,15.6974995,0.0003785,69.9985,49.8044,293.2052,349.5423,-0.00014769,-0.00017808,0.0,0 STARLINK-3103,1 49177U 21082AZ  22047.58334491 -.00017808  00000-0 -14769-3 0  9999,2 49177  69.9985  49.8044 0003785 293.2052 349.5423 15.69749950  3694,6737.749,91.734,362.165,357.064,0.0
49177.0,STARLINK-3103,PAYLOAD,2022-02-16 22:00:00,15.6972514,0.0003675,69.9987,48.8674,287.1139,78.7634,0.00080831,0.00097315,0.0,0 STARLINK-3103,1 49177U 21082AZ  22047.91667824  .00097315  00000-0  80831-3 0  9997,2 49177  69.9987  48.8674 0003675 287.1139  78.7634 15.69725140 25751,6737.82,91.736,362.162,357.209,0.0
49177.0,STARLINK-3103,PAYLOAD,2022-02-17 06:00:00,15.69799595,0.0003879,69.9988,47.9303,290.2869,158.732,-0.00068486,-0.0008136,0.0,0 STARLINK-3103,1 49177U 21082AZ  22048.25001157 -.00081360  00000-0 -68486-3 0  9993,2 49177  69.9988  47.9303 0003879 290.2869 158.7320 15.69799595 25804,6737.607,91.731,362.086,356.8590000000001,0.0
49177.0,STARLINK-3103,PAYLOAD,2022-02-17 14:00:01,15.6979389,0.0003829,69.9987,46.9931,291.8378,240.3215,-0.00069959,-0.00083068,0.0,0 STARLINK-3103,1 49177U 21082AZ  22048.58334491 -.00083068  00000-0 -69959-3 0  9992,2 49177  69.9987  46.9931 0003829 291.8378 240.3215 15.69793890  3692,6737.624,91.732,362.069,356.909,0.0
49177.0,STARLINK-3103,PAYLOAD,2022-02-17 22:00:00,15.69690567,0.0003651,69.9991,46.056,286.8065,328.5037,0.00066888,0.00080212,0.0,0 STARLINK-3103,1 49177U 21082AZ  22048.91667824  .00080212  00000-0  66888-3 0  9992,2 49177  69.9991  46.0560 0003651 286.8065 328.5037 15.69690567 25902,6737.919,91.738,362.244,357.324,0.0
49177.0,STARLINK-3103,PAYLOAD,2022-02-18 06:00:00,15.69747386,0.0003863,69.9996,45.119,289.7614,48.6319,-0.00070952,-0.00084073,0.0,0 STARLINK-3103,1 49177U 21082AZ  22049.25001157 -.00084073  00000-0 -70952-3 0  9999,2 49177  69.9996  45.1190 0003863 289.7614  48.6319 15.69747386 25953,6737.757,91.735,362.225,357.019,0.0
49177.0,STARLINK-3103,PAYLOAD,2022-02-18 14:00:01,15.69715656,0.0003986,69.9991,44.182,289.7396,131.7481,-0.00018933,-0.00022725,0.0,0 STARLINK-3103,1 49177U 21082AZ  22049.58334491 -.00022725  00000-0 -18933-3 0  9992,2 49177  69.9991  44.1820 0003986 289.7396 131.7481 15.69715656 26017,6737.848000000001,91.736,362.398,357.027,0.0
49177.0,STARLINK-3103,PAYLOAD,2022-02-18 22:00:00,15.69696185,0.0003863,69.9994,43.2451,283.7859,220.78,0.00066299,0.00079519,0.0,0 STARLINK-3103,1 49177U 21082AZ  22049.91667824  .00079519  00000-0  66299-3 0  9997,2 49177  69.9994  43.2451 0003863 283.7859 220.7800 15.69696185  3689,6737.903,91.737,362.371,357.165,0.0
49177.0,STARLINK-3103,PAYLOAD,2022-02-19 06:00:00,15.69724509,0.0003973,69.9994,42.3082,288.6367,299.0276,0.00031511,0.00037538,0.0,0 STARLINK-3103,1 49177U 21082AZ  22050.25001157  .00037538  00000-0  31511-3 0  9991,2 49177  69.9994  42.3082 0003973 288.6367 299.0276 15.69724509 26110,6737.821999999999,91.736,362.364,357.01,0.0
49177.0,STARLINK-3103,PAYLOAD,2022-02-19 14:00:01,15.69543378,0.000381,69.9996,41.381,286.4196,24.3877,0.0025123,0.00308381,0.0,0 STARLINK-3103,1 49177U 21082AZ  22050.58334491  .00308381  00000-0  25123-2 0  9995,2 49177  69.9996  41.3810 0003810 286.4196  24.3877 15.69543378 26160,6738.340999999999,91.746,362.773,357.63800000000015,0.0
49177.0,STARLINK-3103,PAYLOAD,2022-02-19 22:00:00,15.69801782,0.000373,69.9998,40.4342,284.0698,109.8886,-0.00022646,-0.0002722,0.0,0 STARLINK-3103,1 49177U 21082AZ  22050.91667824 -.00027220  00000-0 -22646-3 0  9991,2 49177  69.9998  40.4342 0003730 284.0698 109.8886 15.69801782 26226,6737.601,91.731,361.979,356.95300000000015,0.0
49177.0,STARLINK-3103,PAYLOAD,2022-02-20 14:00:01,15.69775102,0.0003851,69.9998,38.5601,287.5324,272.766,-0.00054417,-0.00064751,0.0,0 STARLINK-3103,1 49177U 21082AZ  22051.58334491 -.00064751  00000-0 -54417-3 0  9997,2 49177  69.9998  38.5601 0003851 287.5324 272.7660 15.69775102  3681,6737.677,91.733,362.137,356.9480000000001,0.0
49177.0,STARLINK-3103,PAYLOAD,2022-02-20 22:00:00,15.69755962,0.0003802,70.0001,37.6232,281.819,1.6103,0.00026754,0.00031858,0.0,0 STARLINK-3103,1 49177U 21082AZ  22051.91667824  .00031858  00000-0  26754-3 0  9996,2 49177  70.0001  37.6232 0003802 281.8190   1.6103 15.69755962  3697,6737.732,91.734,362.159,357.036,0.0
49177.0,STARLINK-3103,PAYLOAD,2022-02-21 06:00:00,15.69747887,0.0003848,70.0,36.6864,286.9743,79.5962,-0.00087033,-0.00102853,0.0,0 STARLINK-3103,1 49177U 21082AZ  22052.25001157 -.00102853  00000-0 -87033-3 0  9998,2 49177  70.0000  36.6864 0003848 286.9743  79.5962 15.69747887 26437,6737.755,91.734,362.213,357.028,0.0
49177.0,STARLINK-3103,PAYLOAD,2022-02-21 14:00:01,15.69692286,0.0003881,69.9997,35.7491,286.4533,163.2101,-0.00017897,-0.00021475,0.0,0 STARLINK-3103,1 49177U 21082AZ  22052.58334491 -.00021475  00000-0 -17897-3 0  9995,2 49177  69.9997  35.7491 0003881 286.4533 163.2101 15.69692286 26487,6737.9140000000025,91.738,362.394,357.164,0.0
